TDRS 3                  
1 19548U 88091B   21097.45821206 -.00000314  00000-0  00000+0 0  9998
2 19548  14.0093 354.8716 0037976 328.1179 349.0694  1.00275011106349
FLTSATCOM 8 (USA 46)    
1 20253U 89077A   21096.78104932 -.00000094  00000-0  00000-0 0  9999
2 20253  12.9749   3.2934 0005403  46.0084 139.0010  1.00273471241580
SKYNET 4C               
1 20776U 90079A   21097.18811889  .00000111  00000-0  00000-0 0  9993
2 20776  13.9170   3.4681 0002684   2.1864 291.5513  1.00268718111864
TDRS 5                  
1 21639U 91054B   21097.53805656  .00000071  00000-0  00000+0 0  9994
2 21639  14.2547   8.1846 0027264   4.8991 208.9449  1.00275080108698
TDRS 6                  
1 22314U 93003B   21097.45941571 -.00000308  00000-0  00000+0 0  9993
2 22314  14.0898  11.3681 0008271  68.7947 235.2830  1.00275067103356
UFO 2 (USA 95)          
1 22787U 93056A   21096.89563215  .00000111  00000-0  00000-0 0  9999
2 22787  11.3624  13.5885 0003073 305.9541 226.9663  1.00274102 99521
USA 99 (MILSTAR-1 1)    
1 22988U 94009A   21097.46491189 -.00000206  00000-0  00000+0 0  9990
2 22988  14.6393  47.7933 0002778   2.0502 223.4830  1.00272800 12626
ASTRA 1D                
1 23331U 94070A   21096.41302887 -.00000284  00000-0  00000+0 0  9997
2 23331   9.5081  40.4756 0003822 337.9125 252.2049  1.00275270 97136
USA 107 (DSP 17)        
1 23435U 94084A   21096.44627451 -.00000180  00000-0  00000-0 0  9993
2 23435  14.5825   9.3712 0002205  79.1455 170.5323  1.00269831 13922
UFO 4 (USA 108)         
1 23467U 95003A   21097.23337799 -.00000038  00000-0  00000-0 0  9993
2 23467   9.8439  19.5908 0005863  39.4761  32.9994  1.00270307 95933
AMSC 1                  
1 23553U 95019A   21097.40788804 -.00000113  00000-0  00000+0 0  9995
2 23553  11.5433  29.1405 0011534 358.4324 208.6942  1.00273247 95147
TDRS 7                  
1 23613U 95035B   21097.06017529 -.00000215  00000-0  00000-0 0  9995
2 23613  14.1257   2.0518 0030532  35.9494 263.9604  1.00268449 94221
USA 113                 
1 23628U 95038A   21097.23633941 -.00000352  00000-0  00000-0 0  9997
2 23628  11.7002  27.9821 0001098 328.1241  28.3864  1.00271284 13945
USA 115 (MILSTAR-1 2)   
1 23712U 95060A   21097.39850715 -.00000033  00000-0  00000+0 0  9998
2 23712  13.3482  17.5959 0001918  15.9525 185.8197  1.00275392 12629
INMARSAT 3-F1           
1 23839U 96020A   21097.07407208  .00000094  00000-0  00000-0 0  9992
2 23839   6.6560  60.7193 0006751 337.7806 210.4777  0.99992136 91285
INMARSAT 3-F2           
1 24307U 96053A   21097.09925244 -.00000148  00000-0  00000-0 0  9997
2 24307   5.5457  70.0392 0009446 329.3221  99.7741  0.99980992 89953
AMC-1 (GE-1)            
1 24315U 96054A   21097.56658764  .00000048  00000-0  00000+0 0  9996
2 24315   4.6058  76.6030 0003430 312.7970 239.7086  1.00272769 90009
INMARSAT 3-F3           
1 24674U 96070A   21097.17046778 -.00000268  00000-0  00000-0 0  9991
2 24674   6.2118  64.5020 0006399 322.4995  20.3240  1.00005856 88935
INTELSAT 26 (IS-26)     
1 24732U 97007A   21096.93782425 -.00000011  00000-0  00000-0 0  9992
2 24732   9.4541  41.2631 0007827 358.0735 197.3296  1.00271484 53715
USA 130 (DSP 18)        
1 24737U 97008A   21092.00204247  .00000022  00000-0  00000-0 0  9994
2 24737  13.7038  17.3861 0001310 240.9217 301.6992  1.00260685 13825
GALAXY 25 (G-25)        
1 24812U 97026A   21097.14708854  .00000135  00000-0  00000-0 0  9996
2 24812   2.6234  87.8126 0004036 332.0844 221.5550  1.00273677 87351
INTELSAT 5 (IS-5)       
1 24916U 97046A   21097.04138969  .00000073  00000-0  00000-0 0  9997
2 24916   6.3126  63.8567 0003725 327.1484  42.4183  1.00271685 86605
AMC-3 (GE-3)            
1 24936U 97050A   21097.05438782 -.00000279  00000-0  00000-0 0  9990
2 24936   3.4945  83.3294 0003565 311.9313 107.8512  1.00271264 33418
NSS-5                   
1 24957U 97053A   21097.06074515  .00000088  00000-0  00000-0 0  9994
2 24957   6.5603  62.0998 0003569 319.0963 246.6823  1.00272334 86149
USA 134                 
1 25019U 97065A   21097.49192274 -.00000074  00000-0  00000+0 0  9992
2 25019  10.5575  34.2046 0007369 336.6068 250.0115  1.00272717 12585
ASTRA 1G                
1 25071U 97076A   21097.14438424  .00000099  00000-0  00000-0 0  9991
2 25071   5.2647  71.3777 0003788 309.3599 246.2483  1.00272845 85491
INMARSAT 3-F5           
1 25153U 98006B   21096.84264987 -.00000306  00000-0  00000-0 0  9995
2 25153   5.4435  68.6089 0005133 315.3328  60.7639  1.00270440 84879
UFO 8 (USA 138)         
1 25258U 98016A   21097.23401407 -.00000041  00000-0  00000-0 0  9992
2 25258   8.9698  31.6218 0004180 354.8420  65.1853  1.00268517 84835
ASTRA 2A                
1 25462U 98050A   21097.14604171  .00000129  00000-0  00000-0 0  9996
2 25462   2.3310  90.0846 0002311 296.5505 249.5072  1.00273744 27316
JCSAT-4A                
1 25630U 99006A   21096.80871510 -.00000327  00000-0  00000+0 0  9990
2 25630   5.2495  72.0510 0002444 232.7558 317.6238  1.00271503 80977
SKYNET 4E               
1 25639U 99009B   21096.99677130 -.00000049  00000-0  00000-0 0  9996
2 25639  11.0297  19.3247 0003064   1.3999 172.3219  1.00272170 32366
ASIASAT 3S              
1 25657U 99013A   21097.33124804 -.00000243  00000-0  00000-0 0  9991
2 25657   5.4332  70.5617 0004710 325.5583  66.4251  1.00270219 80805
NIMIQ 1                 
1 25740U 99027A   21097.12327314 -.00000219  00000-0  00000-0 0  9990
2 25740   1.8015  91.4234 0006120 296.7378 125.3016  1.00272649 80039
ABS-7                   
1 25894U 99046A   21097.21897094  .00000135  00000-0  00000+0 0  9993
2 25894   1.6817  92.0628 0003986 268.6226 307.2324  1.00274804 78112
ABS-6                   
1 25924U 99053A   21097.25044306 -.00000142  00000-0  00000-0 0  9999
2 25924   0.0496  71.1583 0002777 348.6536  25.0697  1.00271624 78823
AMC-4 (GE-4)            
1 25954U 99060A   21097.25751948  .00000067  00000-0  00000-0 0  9992
2 25954   0.4382  96.3249 0003106 289.6412 127.5705  1.00272658 24531
UFO 10 (USA 146)        
1 25967U 99063A   21096.82524201 -.00000205  00000-0  00000-0 0  9996
2 25967   8.1978  34.7911 0005043  11.8354  62.7126  1.00267334 78323
GALAXY 11 (G-11)        
1 26038U 99071A   21097.19375976 -.00000182  00000-0  00000-0 0  9993
2 26038   1.9140  93.5274 0001082 168.4112 270.3998  1.00271598 78062
USA 148                 
1 26052U 00001A   21097.61868171  .00000026  00000-0  00000+0 0  9990
2 26052   8.8637  44.9457 0002346 350.4770 203.7810  1.00271583 12600
ASIASTAR                
1 26107U 00016A   21096.94608725 -.00000352  00000-0  00000-0 0  9993
2 26107   4.6750  75.2286 0004514 314.0827 251.7269  1.00273891 76892
USA 149 (DSP 20)        
1 26356U 00024A   21097.24251177  .00000086  00000-0  00000-0 0  9990
2 26356  11.7662  24.3980 0001112 117.9804 335.8902  1.00288849 13899
EUTELSAT 80A            
1 26369U 00028A   21097.15014181  .00000102  00000-0  00000-0 0  9999
2 26369   4.0682  79.0487 0004884 306.7705 272.1480  1.00275344 76413
TDRS 8                  
1 26388U 00034A   21096.83276691 -.00000249  00000-0  00000+0 0  9999
2 26388   9.6868  45.5276 0023105 330.6589 208.1598  1.00276258 76142
INTELSAT 9 (IS-9)       
1 26451U 00043A   21096.84343500 -.00000304  00000-0  00000-0 0  9998
2 26451   6.3011  64.0499 0002939 328.6205  56.3040  1.00273490 25126
BRASILSAT B4            
1 26469U 00046A   21097.48584208 -.00000290  00000-0  00000+0 0  9996
2 26469   4.6504  76.3345 0002624 303.5281 282.9002  1.00273684 75615
ASTRA 2B                
1 26494U 00054A   21097.21617939  .00000100  00000-0  00000+0 0  9991
2 26494   5.1669  71.9717 0005193 311.8501 269.2834  1.00273773 75212
NSS-11 (AAP-1)          
1 26554U 00059A   21097.10381955  .00000003  00000-0  00000-0 0  9990
2 26554   0.0474  68.6426 0002860 302.8864  37.4187  1.00271421 22279
USA 153                 
1 26575U 00065A   21097.10764045 -.00000339  00000-0  00000-0 0  9998
2 26575   8.3764  48.2519 0002677 354.0978 326.5078  1.00273423 13908
AMC-6 (GE-6)            
1 26580U 00067A   21097.56099642  .00000083  00000-0  00000+0 0  9994
2 26580   0.0512  74.2697 0002743 309.4396 235.2731  1.00271593 74963
INTELSAT 12 (IS-12)     
1 26590U 00068A   21097.15328230 -.00000006  00000-0  00000-0 0  9996
2 26590   3.6249  83.6143 0005854 331.8523 259.5775  1.00271829 32689
INTELSAT 1R (IS-1R)     
1 26608U 00072A   21097.24925083 -.00000157  00000-0  00000-0 0  9997
2 26608   3.4104  83.6427 0000654 178.9072 180.0291  1.00271886 22294
ANIK F1                 
1 26624U 00076A   21097.19053203 -.00000083  00000-0  00000-0 0  9997
2 26624   0.3521  98.4244 0007538 319.5248  97.1092  1.00272967 24120
ASTRA 2D                
1 26638U 00081A   21097.00832728  .00000046  00000-0  00000-0 0  9993
2 26638   6.3873  63.0380 0002120 297.2835 255.3974  1.00270809 33889
AMC-8 (GE-8)            
1 26639U 00081B   21097.56382203  .00000068  00000-0  00000+0 0  9996
2 26639   1.3676  93.0012 0002845 295.6203 235.4107  1.00272892 74253
USA 157 (MILSTAR-2 2)   
1 26715U 01009A   21096.56796517  .00000029  00000-0  00000+0 0  9995
2 26715   9.6038  29.1812 0003420 343.8195 252.8738  1.00438115 12612
EUTELSAT 133 WEST A     
1 26719U 01011A   21097.18582128  .00000058  00000-0  00000-0 0  9995
2 26719   2.6583  86.6065 0005098 296.1512 106.9499  1.00272129 73529
INTELSAT 10 (IS-10)     
1 26766U 01019A   21097.01556786 -.00000331  00000-0  00000-0 0  9993
2 26766   4.5619  76.8584 0004945 321.2394 256.2388  1.00635348 26594
INTELSAT 901 (IS-901)   
1 26824U 01024A   21096.70435306 -.00000224  00000-0  00000-0 0  9994
2 26824   0.0303  91.4647 0000960 302.7790  27.0211  1.00271138  3946
ASTRA 2C                
1 26853U 01025A   21097.19714715  .00000117  00000-0  00000-0 0  9995
2 26853   3.5209  83.1091 0002918 294.2165 273.0003  1.00271351 26021
